IXPE                    
1 49954U 21121A   23276.25875868  .00008031  00000+0  64452-3 0  9992
2 49954   0.2290 142.6065 0010252  58.3097 159.0415 14.94916519 99217
